{"type": "FeatureCollection", "features": [ {"type": "Feature", "properties": {"norad_id": 30815, "name": "FENGYUN 1C DEB", "group": "fengyun-1c-debris", "lat": 77.91410189978725, "lon": 26.99868966520127, "alt_km": 642.5462303385339, "timestamp": "2025-12-25T07:41:10.001960+00:00", "meta": {"OBJECT_NAME": "FENGYUN 1C DEB", "OBJECT_ID": "1999-025AUZ", "EPOCH": "2025-12-23T09:52:41.162592", "MEAN_MOTION": 14.74049203, "ECCENTRICITY": 0.00029848, "INCLINATION": 99.3006, "RA_OF_ASC_NODE": 154.8747, "ARG_OF_PERICENTER": 269.0391, "MEAN_ANOMALY": 145.7514, "EPHEMERIS_TYPE": 0, "CLASSIFICATION_TYPE": "U", "NORAD_CAT_ID": 30815, "ELEMENT_SET_NO": 999, "REV_AT_EPOCH": 97937, "BSTAR": 0.0040540881, "MEAN_MOTION_DOT": 0.00026719, "MEAN_MOTION_DDOT": 0}, "tle": {"line1": "1 30815U 99025AUZ 25357.41158753  .00026719  00000+0  40541-2 0  9998", "line2": "2 30815  99.3006 154.8747 0002984 269.0391 145.7514 14.74049203979371"}}, "geometry": {"type": "Point", "coordinates": [26.99868966520127, 77.91410189978725]}}, {"type": "Feature", "properties": {"norad_id": 30816, "name": "FENGYUN 1C DEB", "group": "fengyun-1c-debris", "lat": 69.19425210750767, "lon": 45.45646247518361, "alt_km": 802.2195025764213, "timestamp": "2025-12-25T07:41:10.001970+00:00", "meta": {"OBJECT_NAME": "FENGYUN 1C DEB", "OBJECT_ID": "1999-025AVA", "EPOCH": "2025-12-24T18:24:35.161632", "MEAN_MOTION": 14.18080545, "ECCENTRICITY": 0.005159, "INCLINATION": 98.913, "RA_OF_ASC_NODE": 69.2941, "ARG_OF_PERICENTER": 20.4328, "MEAN_ANOMALY": 107.7972, "EPHEMERIS_TYPE": 0, "CLASSIFICATION_TYPE": "U", "NORAD_CAT_ID": 30816, "ELEMENT_SET_NO": 999, "REV_AT_EPOCH": 96564, "BSTAR": 0.0014980585, "MEAN_MOTION_DOT": 3.069e-05, "MEAN_MOTION_DDOT": 0}, "tle": {"line1": "1 30816U 99025AVA 25358.76707363  .00003069  00000+0  14981-2 0  9997", "line2": "2 30816  98.9130  69.2941 0051590  20.4328 107.7972 14.18080545965649"}}, "geometry": {"type": "Point", "coordinates": [45.45646247518361, 69.19425210750767]}}, {"type": "Feature", "properties": {"norad_id": 30817, "name": "FENGYUN 1C DEB", "group": "fengyun-1c-debris", "lat": 81.20108867095084, "lon": -103.39897031333106, "alt_km": 903.7775877293607, "timestamp": "2025-12-25T07:41:10.001980+00:00", "meta": {"OBJECT_NAME": "FENGYUN 1C DEB", "OBJECT_ID": "1999-025AVB", "EPOCH": "2025-12-24T22:40:48.886464", "MEAN_MOTION": 14.00727572, "ECCENTRICITY": 0.00576755, "INCLINATION": 98.7856, "RA_OF_ASC_NODE": 348.6877, "ARG_OF_PERICENTER": 210.1357, "MEAN_ANOMALY": 149.6486, "EPHEMERIS_TYPE": 0, "CLASSIFICATION_TYPE": "U", "NORAD_CAT_ID": 30817, "ELEMENT_SET_NO": 999, "REV_AT_EPOCH": 96080, "BSTAR": 0.00016090588, "MEAN_MOTION_DOT": 2.01e-06, "MEAN_MOTION_DDOT": 0}, "tle": {"line1": "1 30817U 99025AVB 25358.94501026  .00000201  00000+0  16091-3 0  9996", "line2": "2 30817  98.7856 348.6877 0057675 210.1357 149.6486 14.00727572960802"}}, "geometry": {"type": "Point", "coordinates": [-103.39897031333106, 81.20108867095084]}}, {"type": "Feature", "properties": {"norad_id": 30820, "name": "FENGYUN 1C DEB", "group": "fengyun-1c-debris", "lat": 6.882656422828459, "lon": -83.53852791714276, "alt_km": 787.2925725885189, "timestamp": "2025-12-25T07:41:10.001990+00:00", "meta": {"OBJECT_NAME": "FENGYUN 1C DEB", "OBJECT_ID": "1999-025AVE", "EPOCH": "2025-12-24T12:52:10.947648", "MEAN_MOTION": 14.2149001, "ECCENTRICITY": 0.00519447, "INCLINATION": 98.6753, "RA_OF_ASC_NODE": 94.6351, "ARG_OF_PERICENTER": 154.3736, "MEAN_ANOMALY": 328.4948, "EPHEMERIS_TYPE": 0, "CLASSIFICATION_TYPE": "U", "NORAD_CAT_ID": 30820, "ELEMENT_SET_NO": 999, "REV_AT_EPOCH": 96591, "BSTAR": 0.0018422247, "MEAN_MOTION_DOT": 4.045e-05, "MEAN_MOTION_DDOT": 0}, "tle": {"line1": "1 30820U 99025AVE 25358.53623782  .00004045  00000+0  18422-2 0  9998", "line2": "2 30820  98.6753  94.6351 0051944 154.3736 328.4948 14.21490010965913"}}, "geometry": {"type": "Point", "coordinates": [-83.53852791714276, 6.882656422828459]}}, {"type": "Feature", "properties": {"norad_id": 30821, "name": "FENGYUN 1C DEB", "group": "fengyun-1c-debris", "lat": 59.13583441305079, "lon": 127.33241095195689, "alt_km": 739.2152643152103, "timestamp": "2025-12-25T07:41:10.002000+00:00", "meta": {"OBJECT_NAME": "FENGYUN 1C DEB", "OBJECT_ID": "1999-025AVF", "EPOCH": "2025-12-22T15:05:10.178592", "MEAN_MOTION": 14.49720433, "ECCENTRICITY": 0.0086666, "INCLINATION": 99.1046, "RA_OF_ASC_NODE": 139.9918, "ARG_OF_PERICENTER": 176.3992, "MEAN_ANOMALY": 245.1641, "EPHEMERIS_TYPE": 0, "CLASSIFICATION_TYPE": "U", "NORAD_CAT_ID": 30821, "ELEMENT_SET_NO": 999, "REV_AT_EPOCH": 98932, "BSTAR": 0.00077555632, "MEAN_MOTION_DOT": 3.078e-05, "MEAN_MOTION_DDOT": 0}, "tle": {"line1": "1 30821U 99025AVF 25356.62859003  .00003078  00000+0  77556-3 0  9993", "line2": "2 30821  99.1046 139.9918 0086666 176.3992 245.1641 14.49720433989325"}}, "geometry": {"type": "Point", "coordinates": [127.33241095195689, 59.13583441305079]}}, {"type": "Feature", "properties": {"norad_id": 30822, "name": "FENGYUN 1C DEB", "group": "fengyun-1c-debris", "lat": 40.96243364013407, "lon": 19.375786137024612, "alt_km": 898.3258924308193, "timestamp": "2025-12-25T07:41:10.002010+00:00", "meta": {"OBJECT_NAME": "FENGYUN 1C DEB", "OBJECT_ID": "1999-025AVG", "EPOCH": "2025-12-24T01:00:04.805856", "MEAN_MOTION": 14.1135635, "ECCENTRICITY": 0.00733036, "INCLINATION": 98.7343, "RA_OF_ASC_NODE": 25.8014, "ARG_OF_PERICENTER": 252.8678, "MEAN_ANOMALY": 135.9237, "EPHEMERIS_TYPE": 0, "CLASSIFICATION_TYPE": "U", "NORAD_CAT_ID": 30822, "ELEMENT_SET_NO": 999, "REV_AT_EPOCH": 96861, "BSTAR": 0.00031294892, "MEAN_MOTION_DOT": 5.37e-06, "MEAN_MOTION_DDOT": 0}, "tle": {"line1": "1 30822U 99025AVG 25358.04172229  .00000537  00000+0  31295-3 0  9997", "line2": "2 30822  98.7343  25.8014 0073303 252.8678 135.9237 14.11356350968614"}}, "geometry": {"type": "Point", "coordinates": [19.375786137024612, 40.96243364013407]}}, {"type": "Feature", "properties": {"norad_id": 30823, "name": "FENGYUN 1C DEB", "group": "fengyun-1c-debris", "lat": 76.22084277800809, "lon": -1.1660701420108657, "alt_km": 815.7292593235861, "timestamp": "2025-12-25T07:41:10.002020+00:00", "meta": {"OBJECT_NAME": "FENGYUN 1C DEB", "OBJECT_ID": "1999-025AVH", "EPOCH": "2025-12-19T21:48:58.565088", "MEAN_MOTION": 14.02564136, "ECCENTRICITY": 0.01342337, "INCLINATION": 98.7634, "RA_OF_ASC_NODE": 134.6515, "ARG_OF_PERICENTER": 64.6202, "MEAN_ANOMALY": 87.319, "EPHEMERIS_TYPE": 0, "CLASSIFICATION_TYPE": "U", "NORAD_CAT_ID": 30823, "ELEMENT_SET_NO": 999, "REV_AT_EPOCH": 96134, "BSTAR": 0.00016735994, "MEAN_MOTION_DOT": 2.38e-06, "MEAN_MOTION_DDOT": 0}, "tle": {"line1": "1 30823U 99025AVH 25353.90901117  .00000238  00000+0  16736-3 0  9995", "line2": "2 30823  98.7634 134.6515 0134233  64.6202  87.3190 14.02564136961349"}}, "geometry": {"type": "Point", "coordinates": [-1.1660701420108657, 76.22084277800809]}}, {"type": "Feature", "properties": {"norad_id": 30826, "name": "FENGYUN 1C DEB", "group": "fengyun-1c-debris", "lat": -46.671795564026965, "lon": 6.164411520237245, "alt_km": 626.5563048186723, "timestamp": "2025-12-25T07:41:10.002029+00:00", "meta": {"OBJECT_NAME": "FENGYUN 1C DEB", "OBJECT_ID": "1999-025AVL", "EPOCH": "2025-12-24T00:34:49.139040", "MEAN_MOTION": 14.82336846, "ECCENTRICITY": 0.01445927, "INCLINATION": 98.8661, "RA_OF_ASC_NODE": 194.2541, "ARG_OF_PERICENTER": 321.0518, "MEAN_ANOMALY": 195.6157, "EPHEMERIS_TYPE": 0, "CLASSIFICATION_TYPE": "U", "NORAD_CAT_ID": 30826, "ELEMENT_SET_NO": 999, "REV_AT_EPOCH": 453, "BSTAR": 0.00056329676, "MEAN_MOTION_DOT": 5.334e-05, "MEAN_MOTION_DDOT": 0}, "tle": {"line1": "1 30826U 99025AVL 25358.02417985  .00005334  00000+0  56330-3 0  9997", "line2": "2 30826  98.8661 194.2541 0144592 321.0518 195.6157 14.82336846  4531"}}, "geometry": {"type": "Point", "coordinates": [6.164411520237245, -46.671795564026965]}}, {"type": "Feature", "properties": {"norad_id": 30827, "name": "FENGYUN 1C DEB", "group": "fengyun-1c-debris", "lat": 6.398319872975533, "lon": 166.34793589073539, "alt_km": 740.6442718057251, "timestamp": "2025-12-25T07:41:10.002040+00:00", "meta": {"OBJECT_NAME": "FENGYUN 1C DEB", "OBJECT_ID": "1999-025AVM", "EPOCH": "2025-12-22T05:24:17.025120", "MEAN_MOTION": 14.37918372, "ECCENTRICITY": 0.00439891, "INCLINATION": 99.0037, "RA_OF_ASC_NODE": 342.0879, "ARG_OF_PERICENTER": 150.3136, "MEAN_ANOMALY": 210.056, "EPHEMERIS_TYPE": 0, "CLASSIFICATION_TYPE": "U", "NORAD_CAT_ID": 30827, "ELEMENT_SET_NO": 999, "REV_AT_EPOCH": 96685, "BSTAR": 0.0026816406, "MEAN_MOTION_DOT": 8.15e-05, "MEAN_MOTION_DDOT": 0}, "tle": {"line1": "1 30827U 99025AVM 25356.22519705  .00008150  00000+0  26816-2 0  9995", "line2": "2 30827  99.0037 342.0879 0043989 150.3136 210.0560 14.37918372966858"}}, "geometry": {"type": "Point", "coordinates": [166.34793589073539, 6.398319872975533]}}, {"type": "Feature", "properties": {"norad_id": 30828, "name": "FENGYUN 1C DEB", "group": "fengyun-1c-debris", "lat": 8.270376740398653, "lon": -71.99458870301112, "alt_km": 515.8088413182222, "timestamp": "2025-12-25T07:41:10.002050+00:00", "meta": {"OBJECT_NAME": "FENGYUN 1C DEB", "OBJECT_ID": "1999-025AVN", "EPOCH": "2025-12-24T13:20:15.256032", "MEAN_MOTION": 14.77360694, "ECCENTRICITY": 0.02083841, "INCLINATION": 98.3758, "RA_OF_ASC_NODE": 105.9839, "ARG_OF_PERICENTER": 141.072, "MEAN_ANOMALY": 285.4641, "EPHEMERIS_TYPE": 0, "CLASSIFICATION_TYPE": "U", "NORAD_CAT_ID": 30828, "ELEMENT_SET_NO": 999, "REV_AT_EPOCH": 98831, "BSTAR": 0.0015783943, "MEAN_MOTION_DOT": 0.00016082, "MEAN_MOTION_DDOT": 0}, "tle": {"line1": "1 30828U 99025AVN 25358.55573213  .00016082  00000+0  15784-2 0  9993", "line2": "2 30828  98.3758 105.9839 0208384 141.0720 285.4641 14.77360694988314"}}, "geometry": {"type": "Point", "coordinates": [-71.99458870301112, 8.270376740398653]}}]}